start=new Date('2022-08-26T00:00:00.000Z').valueOf();
sats=[{"DECAY_DATE":null,"APOAPSIS":"548.217","ECCENTRICITY":"0.00014090","SITE":"AFETR","PERIAPSIS":"546.266","LAUNCH_DATE":"2020-02-17","NORAD_CAT_ID":"45182","PERIOD":"95.593","MEAN_ELEMENT_THEORY":"SGP4","OBJECT_NAME":"STARLINK-1201","CLASSIFICATION_TYPE":"U","OBJECT_ID":"2020-012E","MEAN_ANOMALY":"277.5832","EPHEMERIS_TYPE":"0","BSTAR":"0.00011699000000","MEAN_MOTION_DOT":"0.00001461","RCS_SIZE":"LARGE","MEAN_MOTION_DDOT":"0.0000000000000","FILE":"3547674","GP_ID":"211003483","TLE_LINE1":"1 45182U 20012E   22237.78323708  .00001461  00000-0  11699-3 0  9990","INCLINATION":"53.0538","RA_OF_ASC_NODE":"66.2066","REF_FRAME":"TEME","TLE_LINE2":"2 45182  53.0538  66.2066 0001409  82.5317 277.5832 15.06390836140248","REV_AT_EPOCH":"14024","CENTER_NAME":"EARTH","TIME_SYSTEM":"UTC","OBJECT_TYPE":"PAYLOAD","COUNTRY_CODE":"US","ELEMENT_SET_NO":"999","SEMIMAJOR_AXIS":"6925.377","MEAN_MOTION":"15.06390836","ARG_OF_PERICENTER":"82.5317","EPOCH":"2022-08-25T18:47:51.683712"},{"TLE_LINE1":"1 45183U 20012F   22237.86614992  .00002238  00000-0  16903-3 0  9994","INCLINATION":"53.0590","RA_OF_ASC_NODE":"85.8475","REF_FRAME":"TEME","FILE":"3547674","GP_ID":"211003230","TLE_LINE2":"2 45183  53.0590  85.8475 0001914 102.8550 257.2653 15.06410460140134","REV_AT_EPOCH":"14013","OBJECT_TYPE":"PAYLOAD","COUNTRY_CODE":"US","ELEMENT_SET_NO":"999","CENTER_NAME":"EARTH","TIME_SYSTEM":"UTC","MEAN_MOTION":"15.06410460","ARG_OF_PERICENTER":"102.8550","EPOCH":"2022-08-25T20:47:15.353088","SEMIMAJOR_AXIS":"6925.316","SITE":"AFETR","PERIAPSIS":"545.856","LAUNCH_DATE":"2020-02-17","DECAY_DATE":null,"APOAPSIS":"548.507","ECCENTRICITY":"0.00019140","MEAN_ELEMENT_THEORY":"SGP4","OBJECT_NAME":"STARLINK-1202","NORAD_CAT_ID":"45183","PERIOD":"95.591","OBJECT_ID":"2020-012F","MEAN_ANOMALY":"257.2653","CLASSIFICATION_TYPE":"U","RCS_SIZE":"LARGE","MEAN_MOTION_DDOT":"0.0000000000000","EPHEMERIS_TYPE":"0","BSTAR":"0.00016903000000","MEAN_MOTION_DOT":"0.00002238"},{"OBJECT_TYPE":"PAYLOAD","COUNTRY_CODE":"US","ELEMENT_SET_NO":"999","CENTER_NAME":"EARTH","TIME_SYSTEM":"UTC","MEAN_MOTION":"15.06393339","ARG_OF_PERICENTER":"92.3676","EPOCH":"2022-08-25T18:58:28.170048","SEMIMAJOR_AXIS":"6925.369","TLE_LINE1":"1 45184U 20012G   22237.79060382  .00000069  00000-0  23505-4 0  9992","RA_OF_ASC_NODE":"66.1864","INCLINATION":"53.0552","REF_FRAME":"TEME","FILE":"3547674","GP_ID":"211003974","TLE_LINE2":"2 45184  53.0552  66.1864 0001446  92.3676 267.7478 15.06393339139436","REV_AT_EPOCH":"13943","OBJECT_ID":"2020-012G","MEAN_ANOMALY":"267.7478","CLASSIFICATION_TYPE":"U","RCS_SIZE":"LARGE","MEAN_MOTION_DDOT":"0.0000000000000","EPHEMERIS_TYPE":"0","MEAN_MOTION_DOT":"0.00000069","BSTAR":"0.00002350500000","SITE":"AFETR","PERIAPSIS":"546.233","LAUNCH_DATE":"2020-02-17","DECAY_DATE":null,"APOAPSIS":"548.235","ECCENTRICITY":"0.00014460","MEAN_ELEMENT_THEORY":"SGP4","OBJECT_NAME":"STARLINK-1205","NORAD_CAT_ID":"45184","PERIOD":"95.593"},{"MEAN_MOTION":"15.06398942","ARG_OF_PERICENTER":"88.8689","EPOCH":"2022-08-25T20:36:39.617568","SEMIMAJOR_AXIS":"6925.352","OBJECT_TYPE":"PAYLOAD","COUNTRY_CODE":"US","ELEMENT_SET_NO":"999","CENTER_NAME":"EARTH","TIME_SYSTEM":"UTC","TLE_LINE2":"2 45185  53.0544  85.8783 0001595  88.8689 271.2482 15.06398942140077","REV_AT_EPOCH":"14007","RA_OF_ASC_NODE":"85.8783","INCLINATION":"53.0544","TLE_LINE1":"1 45185U 20012H   22237.85879187  .00001051  00000-0  89431-4 0  9993","REF_FRAME":"TEME","GP_ID":"211004720","FILE":"3547674","RCS_SIZE":"LARGE","MEAN_MOTION_DDOT":"0.0000000000000","EPHEMERIS_TYPE":"0","MEAN_MOTION_DOT":"0.00001051","BSTAR":"0.00008943100000","MEAN_ANOMALY":"271.2482","OBJECT_ID":"2020-012H","CLASSIFICATION_TYPE":"U","MEAN_ELEMENT_THEORY":"SGP4","OBJECT_NAME":"STARLINK-1216","NORAD_CAT_ID":"45185","PERIOD":"95.592","PERIAPSIS":"546.112","SITE":"AFETR","LAUNCH_DATE":"2020-02-17","APOAPSIS":"548.321","ECCENTRICITY":"0.00015950","DECAY_DATE":null},{"SEMIMAJOR_AXIS":"6925.352","MEAN_MOTION":"15.06398861","ARG_OF_PERICENTER":"77.7588","EPOCH":"2022-08-25T20:57:53.133696","CENTER_NAME":"EARTH","TIME_SYSTEM":"UTC","OBJECT_TYPE":"PAYLOAD","COUNTRY_CODE":"US","ELEMENT_SET_NO":"999","TLE_LINE2":"2 45186  53.0550  85.8156 0001557  77.7588 282.3575 15.06398861140078","REV_AT_EPOCH":"14007","GP_ID":"211002983","FILE":"3547674","INCLINATION":"53.0550","RA_OF_ASC_NODE":"85.8156","TLE_LINE1":"1 45186U 20012J   22237.87353164  .00001257  00000-0  10325-3 0  9991","REF_FRAME":"TEME","EPHEMERIS_TYPE":"0","MEAN_MOTION_DOT":"0.00001257","BSTAR":"0.00010325000000","RCS_SIZE":"LARGE","MEAN_MOTION_DDOT":"0.0000000000000","CLASSIFICATION_TYPE":"U","MEAN_ANOMALY":"282.3575","OBJECT_ID":"2020-012J","NORAD_CAT_ID":"45186","PERIOD":"95.592","MEAN_ELEMENT_THEORY":"SGP4","OBJECT_NAME":"STARLINK-1224","ECCENTRICITY":"0.00015570","APOAPSIS":"548.295","DECAY_DATE":null,"PERIAPSIS":"546.139","SITE":"AFETR","LAUNCH_DATE":"2020-02-17"},{"TIME_SYSTEM":"UTC","CENTER_NAME":"EARTH","ELEMENT_SET_NO":"999","OBJECT_TYPE":"PAYLOAD","COUNTRY_CODE":"US","SEMIMAJOR_AXIS":"6925.352","ARG_OF_PERICENTER":"74.0403","EPOCH":"2022-08-25T21:03:11.747520","MEAN_MOTION":"15.06398927","GP_ID":"211003730","FILE":"3547674","REF_FRAME":"TEME","RA_OF_ASC_NODE":"85.8004","INCLINATION":"53.0558","TLE_LINE1":"1 45187U 20012K   22237.87721930 -.00000233  00000-0  32858-5 0  9993","REV_AT_EPOCH":"14012","TLE_LINE2":"2 45187  53.0558  85.8004 0001465  74.0403 286.0747 15.06398927140124","CLASSIFICATION_TYPE":"U","MEAN_ANOMALY":"286.0747","OBJECT_ID":"2020-012K","MEAN_MOTION_DOT":"-0.00000233","BSTAR":"0.00000328580000","EPHEMERIS_TYPE":"0","MEAN_MOTION_DDOT":"0.0000000000000","RCS_SIZE":"LARGE","APOAPSIS":"548.231","ECCENTRICITY":"0.00014650","DECAY_DATE":null,"LAUNCH_DATE":"2020-02-17","SITE":"AFETR","PERIAPSIS":"546.202","PERIOD":"95.592","NORAD_CAT_ID":"45187","OBJECT_NAME":"STARLINK-1225","MEAN_ELEMENT_THEORY":"SGP4"},{"REF_FRAME":"TEME","RA_OF_ASC_NODE":"46.2576","INCLINATION":"53.0549","TLE_LINE1":"1 45188U 20012L   22237.77402267  .00000453  00000-0  49289-4 0  9990","GP_ID":"210979876","FILE":"3547448","REV_AT_EPOCH":"13968","TLE_LINE2":"2 45188  53.0549  46.2576 0001485  71.7802 288.3348 15.06390229139687","ELEMENT_SET_NO":"999","OBJECT_TYPE":"PAYLOAD","COUNTRY_CODE":"US","TIME_SYSTEM":"UTC","CENTER_NAME":"EARTH","EPOCH":"2022-08-25T18:34:35.558688","ARG_OF_PERICENTER":"71.7802","MEAN_MOTION":"15.06390229","SEMIMAJOR_AXIS":"6925.379","LAUNCH_DATE":"2020-02-17","PERIAPSIS":"546.215","SITE":"AFETR","APOAPSIS":"548.272","ECCENTRICITY":"0.00014850","DECAY_DATE":null,"OBJECT_NAME":"STARLINK-1228","MEAN_ELEMENT_THEORY":"SGP4","PERIOD":"95.593","NORAD_CAT_ID":"45188","MEAN_ANOMALY":"288.3348","OBJECT_ID":"2020-012L","CLASSIFICATION_TYPE":"U","MEAN_MOTION_DDOT":"0.0000000000000","RCS_SIZE":"LARGE","MEAN_MOTION_DOT":"0.00000453","BSTAR":"0.00004928900000","EPHEMERIS_TYPE":"0"},{"GP_ID":"211004220","FILE":"3547674","REF_FRAME":"TEME","RA_OF_ASC_NODE":"85.7873","INCLINATION":"53.0559","TLE_LINE1":"1 45189U 20012M   22237.88090811 -.00000416  00000-0 -90391-5 0  9993","REV_AT_EPOCH":"13735","TLE_LINE2":"2 45189  53.0559  85.7873 0001417  93.1941 266.9211 15.06402156137350","TIME_SYSTEM":"UTC","CENTER_NAME":"EARTH","ELEMENT_SET_NO":"999","COUNTRY_CODE":"US","OBJECT_TYPE":"PAYLOAD","SEMIMAJOR_AXIS":"6925.342","EPOCH":"2022-08-25T21:08:30.460704","ARG_OF_PERICENTER":"93.1941","MEAN_MOTION":"15.06402156","APOAPSIS":"548.188","ECCENTRICITY":"0.00014170","DECAY_DATE":null,"LAUNCH_DATE":"2020-02-17","SITE":"AFETR","PERIAPSIS":"546.226","PERIOD":"95.592","NORAD_CAT_ID":"45189","OBJECT_NAME":"STARLINK-1230","MEAN_ELEMENT_THEORY":"SGP4","CLASSIFICATION_TYPE":"U","MEAN_ANOMALY":"266.9211","OBJECT_ID":"2020-012M","MEAN_MOTION_DOT":"-0.00000416","BSTAR":"-0.00000903910000","EPHEMERIS_TYPE":"0","MEAN_MOTION_DDOT":"0.0000000000000","RCS_SIZE":"LARGE"},{"PERIOD":"95.592","NORAD_CAT_ID":"45190","OBJECT_NAME":"STARLINK-1234","MEAN_ELEMENT_THEORY":"SGP4","DECAY_DATE":null,"APOAPSIS":"548.156","ECCENTRICITY":"0.00013700","LAUNCH_DATE":"2020-02-17","SITE":"AFETR","PERIAPSIS":"546.259","MEAN_MOTION_DOT":"-0.00000279","BSTAR":"0.00000014008000","EPHEMERIS_TYPE":"0","MEAN_MOTION_DDOT":"0.0000000000000","RCS_SIZE":"LARGE","CLASSIFICATION_TYPE":"U","OBJECT_ID":"2020-012N","MEAN_ANOMALY":"284.3478","REV_AT_EPOCH":"14057","TLE_LINE2":"2 45190  53.0564  46.3011 0001370  75.7663 284.3478 15.06401928140573","FILE":"3547674","GP_ID":"211003484","REF_FRAME":"TEME","TLE_LINE1":"1 45190U 20012N   22237.76663935 -.00000279  00000-0  14008-6 0  9993","RA_OF_ASC_NODE":"46.3011","INCLINATION":"53.0564","SEMIMAJOR_AXIS":"6925.343","ARG_OF_PERICENTER":"75.7663","EPOCH":"2022-08-25T18:23:57.639840","MEAN_MOTION":"15.06401928","TIME_SYSTEM":"UTC","CENTER_NAME":"EARTH","ELEMENT_SET_NO":"999","OBJECT_TYPE":"PAYLOAD","COUNTRY_CODE":"US"},{"PERIOD":"95.593","NORAD_CAT_ID":"45191","OBJECT_NAME":"STARLINK-1236","MEAN_ELEMENT_THEORY":"SGP4","DECAY_DATE":null,"ECCENTRICITY":"0.00013800","APOAPSIS":"548.195","LAUNCH_DATE":"2020-02-17","PERIAPSIS":"546.284","SITE":"AFETR","MEAN_MOTION_DOT":"-0.00000435","BSTAR":"-0.00001034700000","EPHEMERIS_TYPE":"0","MEAN_MOTION_DDOT":"0.0000000000000","RCS_SIZE":"LARGE","CLASSIFICATION_TYPE":"U","OBJECT_ID":"2020-012P","MEAN_ANOMALY":"271.6747","REV_AT_EPOCH":"13725","TLE_LINE2":"2 45191  53.0542  88.4279 0001380  88.4400 271.6747 15.06391491137256","FILE":"3547226","GP_ID":"210968228","REF_FRAME":"TEME","TLE_LINE1":"1 45191U 20012P   22237.29116300 -.00000435  00000-0 -10347-4 0  9996","RA_OF_ASC_NODE":"88.4279","INCLINATION":"53.0542","SEMIMAJOR_AXIS":"6925.375","ARG_OF_PERICENTER":"88.4400","EPOCH":"2022-08-25T06:59:16.483200","MEAN_MOTION":"15.06391491","TIME_SYSTEM":"UTC","CENTER_NAME":"EARTH","ELEMENT_SET_NO":"999","COUNTRY_CODE":"US","OBJECT_TYPE":"PAYLOAD"}];
